{"type": "FeatureCollection", "features": [ {"type": "Feature", "properties": {"norad_id": 30146, "name": "FENGYUN 1C DEB", "group": "fengyun-1c-debris", "lat": 41.42735499629401, "lon": 135.4669017065815, "alt_km": 941.6323358534919, "timestamp": "2025-12-08T08:59:01.040010+00:00", "meta": {"OBJECT_NAME": "FENGYUN 1C DEB", "OBJECT_ID": "1999-025TB", "EPOCH": "2025-12-07T21:24:52.624800", "MEAN_MOTION": 13.86586901, "ECCENTRICITY": 0.01787436, "INCLINATION": 98.02, "RA_OF_ASC_NODE": 142.2001, "ARG_OF_PERICENTER": 136.2973, "MEAN_ANOMALY": 22.8836, "EPHEMERIS_TYPE": 0, "CLASSIFICATION_TYPE": "U", "NORAD_CAT_ID": 30146, "ELEMENT_SET_NO": 999, "REV_AT_EPOCH": 95350, "BSTAR": 0.0010266883, "MEAN_MOTION_DOT": 1.32e-05, "MEAN_MOTION_DDOT": 0}, "tle": {"line1": "1 30146U 99025TB  25341.89227575  .00001320  00000+0  10267-2 0  9992", "line2": "2 30146  98.0200 142.2001 0178743 136.2973  22.8836 13.86586901953504"}}, "geometry": {"type": "Point", "coordinates": [135.4669017065815, 41.42735499629401]}}, {"type": "Feature", "properties": {"norad_id": 30148, "name": "FENGYUN 1C DEB", "group": "fengyun-1c-debris", "lat": 38.15643156696661, "lon": 123.98075124013963, "alt_km": 1027.9749369248511, "timestamp": "2025-12-08T08:59:01.040021+00:00", "meta": {"OBJECT_NAME": "FENGYUN 1C DEB", "OBJECT_ID": "1999-025TD", "EPOCH": "2025-12-07T23:00:33.966144", "MEAN_MOTION": 13.88469841, "ECCENTRICITY": 0.01348931, "INCLINATION": 99.545, "RA_OF_ASC_NODE": 131.1521, "ARG_OF_PERICENTER": 209.3333, "MEAN_ANOMALY": 273.6083, "EPHEMERIS_TYPE": 0, "CLASSIFICATION_TYPE": "U", "NORAD_CAT_ID": 30148, "ELEMENT_SET_NO": 999, "REV_AT_EPOCH": 95450, "BSTAR": 0.0013681361, "MEAN_MOTION_DOT": 1.719e-05, "MEAN_MOTION_DDOT": 0}, "tle": {"line1": "1 30148U 99025TD  25341.95872646  .00001719  00000+0  13681-2 0  9991", "line2": "2 30148  99.5450 131.1521 0134893 209.3333 273.6083 13.88469841954509"}}, "geometry": {"type": "Point", "coordinates": [123.98075124013963, 38.15643156696661]}}, {"type": "Feature", "properties": {"norad_id": 30150, "name": "FENGYUN 1C DEB", "group": "fengyun-1c-debris", "lat": -24.723172982281206, "lon": -65.6500679118576, "alt_km": 1031.3041140619353, "timestamp": "2025-12-08T08:59:01.040031+00:00", "meta": {"OBJECT_NAME": "FENGYUN 1C DEB", "OBJECT_ID": "1999-025TF", "EPOCH": "2025-12-07T07:50:26.968992", "MEAN_MOTION": 13.86584176, "ECCENTRICITY": 0.01466222, "INCLINATION": 98.9942, "RA_OF_ASC_NODE": 117.5246, "ARG_OF_PERICENTER": 350.8449, "MEAN_ANOMALY": 28.5543, "EPHEMERIS_TYPE": 0, "CLASSIFICATION_TYPE": "U", "NORAD_CAT_ID": 30150, "ELEMENT_SET_NO": 999, "REV_AT_EPOCH": 95383, "BSTAR": 0.00076036673, "MEAN_MOTION_DOT": 9.19e-06, "MEAN_MOTION_DDOT": 0}, "tle": {"line1": "1 30150U 99025TF  25341.32670103  .00000919  00000+0  76037-3 0  9995", "line2": "2 30150  98.9942 117.5246 0146622 350.8449  28.5543 13.86584176953836"}}, "geometry": {"type": "Point", "coordinates": [-65.6500679118576, -24.723172982281206]}}, {"type": "Feature", "properties": {"norad_id": 30151, "name": "FENGYUN 1C DEB", "group": "fengyun-1c-debris", "lat": 42.248272616145954, "lon": -17.83535467475649, "alt_km": 988.5042808020771, "timestamp": "2025-12-08T08:59:01.040041+00:00", "meta": {"OBJECT_NAME": "FENGYUN 1C DEB", "OBJECT_ID": "1999-025TG", "EPOCH": "2025-12-07T14:19:52.336992", "MEAN_MOTION": 13.84461998, "ECCENTRICITY": 0.01631973, "INCLINATION": 99.0632, "RA_OF_ASC_NODE": 349.7501, "ARG_OF_PERICENTER": 292.6512, "MEAN_ANOMALY": 197.1527, "EPHEMERIS_TYPE": 0, "CLASSIFICATION_TYPE": "U", "NORAD_CAT_ID": 30151, "ELEMENT_SET_NO": 999, "REV_AT_EPOCH": 95174, "BSTAR": 0.0011087687, "MEAN_MOTION_DOT": 1.333e-05, "MEAN_MOTION_DDOT": 0}, "tle": {"line1": "1 30151U 99025TG  25341.59713353  .00001333  00000+0  11088-2 0  9995", "line2": "2 30151  99.0632 349.7501 0163197 292.6512 197.1527 13.84461998951745"}}, "geometry": {"type": "Point", "coordinates": [-17.83535467475649, 42.248272616145954]}}, {"type": "Feature", "properties": {"norad_id": 30152, "name": "FENGYUN 1C DEB", "group": "fengyun-1c-debris", "lat": -28.86980989433759, "lon": -154.76293497055823, "alt_km": 980.040286543428, "timestamp": "2025-12-08T08:59:01.040052+00:00", "meta": {"OBJECT_NAME": "FENGYUN 1C DEB", "OBJECT_ID": "1999-025TH", "EPOCH": "2025-12-07T21:05:22.711776", "MEAN_MOTION": 13.96637194, "ECCENTRICITY": 0.01614539, "INCLINATION": 99.0797, "RA_OF_ASC_NODE": 199.6898, "ARG_OF_PERICENTER": 98.7476, "MEAN_ANOMALY": 263.201, "EPHEMERIS_TYPE": 0, "CLASSIFICATION_TYPE": "U", "NORAD_CAT_ID": 30152, "ELEMENT_SET_NO": 999, "REV_AT_EPOCH": 95310, "BSTAR": 0.0034682663, "MEAN_MOTION_DOT": 5.324e-05, "MEAN_MOTION_DDOT": 0}, "tle": {"line1": "1 30152U 99025TH  25341.87873509  .00005324  00000+0  34683-2 0  9997", "line2": "2 30152  99.0797 199.6898 0161453  98.7476 263.2010 13.96637194953106"}}, "geometry": {"type": "Point", "coordinates": [-154.76293497055823, -28.86980989433759]}}, {"type": "Feature", "properties": {"norad_id": 30153, "name": "FENGYUN 1C DEB", "group": "fengyun-1c-debris", "lat": -64.715020446256, "lon": 129.27142943706764, "alt_km": 1068.2513685062404, "timestamp": "2025-12-08T08:59:01.040062+00:00", "meta": {"OBJECT_NAME": "FENGYUN 1C DEB", "OBJECT_ID": "1999-025TJ", "EPOCH": "2025-12-07T23:25:24.024864", "MEAN_MOTION": 13.78748658, "ECCENTRICITY": 0.0200795, "INCLINATION": 100.4662, "RA_OF_ASC_NODE": 331.8676, "ARG_OF_PERICENTER": 17.6855, "MEAN_ANOMALY": 54.7299, "EPHEMERIS_TYPE": 0, "CLASSIFICATION_TYPE": "U", "NORAD_CAT_ID": 30153, "ELEMENT_SET_NO": 999, "REV_AT_EPOCH": 94709, "BSTAR": 0.0016290358, "MEAN_MOTION_DOT": 1.872e-05, "MEAN_MOTION_DDOT": 0}, "tle": {"line1": "1 30153U 99025TJ  25341.97597251  .00001872  00000+0  16290-2 0  9994", "line2": "2 30153 100.4662 331.8676 0200795  17.6855  54.7299 13.78748658947094"}}, "geometry": {"type": "Point", "coordinates": [129.27142943706764, -64.715020446256]}}, {"type": "Feature", "properties": {"norad_id": 30154, "name": "FENGYUN 1C DEB", "group": "fengyun-1c-debris", "lat": 25.51083185839808, "lon": 20.515818293059144, "alt_km": 1075.2036841961954, "timestamp": "2025-12-08T08:59:01.040072+00:00", "meta": {"OBJECT_NAME": "FENGYUN 1C DEB", "OBJECT_ID": "1999-025TK", "EPOCH": "2025-12-07T01:48:47.945952", "MEAN_MOTION": 13.8595666, "ECCENTRICITY": 0.01826933, "INCLINATION": 98.4498, "RA_OF_ASC_NODE": 23.4108, "ARG_OF_PERICENTER": 214.1579, "MEAN_ANOMALY": 175.0198, "EPHEMERIS_TYPE": 0, "CLASSIFICATION_TYPE": "U", "NORAD_CAT_ID": 30154, "ELEMENT_SET_NO": 999, "REV_AT_EPOCH": 94906, "BSTAR": 0.002489748, "MEAN_MOTION_DOT": 3.224e-05, "MEAN_MOTION_DDOT": 0}, "tle": {"line1": "1 30154U 99025TK  25341.07555493  .00003224  00000+0  24897-2 0  9993", "line2": "2 30154  98.4498  23.4108 0182693 214.1579 175.0198 13.85956660949061"}}, "geometry": {"type": "Point", "coordinates": [20.515818293059144, 25.51083185839808]}}, {"type": "Feature", "properties": {"norad_id": 30155, "name": "FENGYUN 1C DEB", "group": "fengyun-1c-debris", "lat": 74.65777221752785, "lon": 16.996780290515865, "alt_km": 952.7335432720847, "timestamp": "2025-12-08T08:59:01.040082+00:00", "meta": {"OBJECT_NAME": "FENGYUN 1C DEB", "OBJECT_ID": "1999-025TL", "EPOCH": "2025-12-07T20:22:54.831072", "MEAN_MOTION": 13.73773554, "ECCENTRICITY": 0.02418086, "INCLINATION": 99.7516, "RA_OF_ASC_NODE": 55.2743, "ARG_OF_PERICENTER": 356.5452, "MEAN_ANOMALY": 3.4017, "EPHEMERIS_TYPE": 0, "CLASSIFICATION_TYPE": "U", "NORAD_CAT_ID": 30155, "ELEMENT_SET_NO": 999, "REV_AT_EPOCH": 93797, "BSTAR": 0.0023083165, "MEAN_MOTION_DOT": 2.619e-05, "MEAN_MOTION_DDOT": 0}, "tle": {"line1": "1 30155U 99025TL  25341.84924573  .00002619  00000+0  23083-2 0  9991", "line2": "2 30155  99.7516  55.2743 0241808 356.5452   3.4017 13.73773554937977"}}, "geometry": {"type": "Point", "coordinates": [16.996780290515865, 74.65777221752785]}}, {"type": "Feature", "properties": {"norad_id": 30156, "name": "FENGYUN 1C DEB", "group": "fengyun-1c-debris", "lat": -37.10058612146357, "lon": 122.7936804672468, "alt_km": 885.7253129555429, "timestamp": "2025-12-08T08:59:01.040092+00:00", "meta": {"OBJECT_NAME": "FENGYUN 1C DEB", "OBJECT_ID": "1999-025TM", "EPOCH": "2025-12-07T21:45:30.468960", "MEAN_MOTION": 13.80786336, "ECCENTRICITY": 0.01997551, "INCLINATION": 98.9183, "RA_OF_ASC_NODE": 309.1722, "ARG_OF_PERICENTER": 275.9109, "MEAN_ANOMALY": 139.8529, "EPHEMERIS_TYPE": 0, "CLASSIFICATION_TYPE": "U", "NORAD_CAT_ID": 30156, "ELEMENT_SET_NO": 999, "REV_AT_EPOCH": 94624, "BSTAR": 0.0022109089, "MEAN_MOTION_DOT": 2.663e-05, "MEAN_MOTION_DDOT": 0}, "tle": {"line1": "1 30156U 99025TM  25341.90660265  .00002663  00000+0  22109-2 0  9991", "line2": "2 30156  98.9183 309.1722 0199755 275.9109 139.8529 13.80786336946245"}}, "geometry": {"type": "Point", "coordinates": [122.7936804672468, -37.10058612146357]}}, {"type": "Feature", "properties": {"norad_id": 30157, "name": "FENGYUN 1C DEB", "group": "fengyun-1c-debris", "lat": -28.226631087078424, "lon": -105.4286071784264, "alt_km": 721.5067722293988, "timestamp": "2025-12-08T08:59:01.040103+00:00", "meta": {"OBJECT_NAME": "FENGYUN 1C DEB", "OBJECT_ID": "1999-025TN", "EPOCH": "2025-12-07T19:18:40.552992", "MEAN_MOTION": 14.44985818, "ECCENTRICITY": 0.00369925, "INCLINATION": 98.7157, "RA_OF_ASC_NODE": 78.7105, "ARG_OF_PERICENTER": 207.5655, "MEAN_ANOMALY": 279.1312, "EPHEMERIS_TYPE": 0, "CLASSIFICATION_TYPE": "U", "NORAD_CAT_ID": 30157, "ELEMENT_SET_NO": 999, "REV_AT_EPOCH": 98001, "BSTAR": 0.0037873457, "MEAN_MOTION_DOT": 0.000133, "MEAN_MOTION_DDOT": 0}, "tle": {"line1": "1 30157U 99025TN  25341.80463603  .00013300  00000+0  37873-2 0  9992", "line2": "2 30157  98.7157  78.7105 0036992 207.5655 279.1312 14.44985818980017"}}, "geometry": {"type": "Point", "coordinates": [-105.4286071784264, -28.226631087078424]}}]}